STARLINK-36828          
1 67857U 26034H   26074.98587807  .00468976  00000+0  22368-2 0  9991
2 67857  53.1587 179.7497 0004389  74.2599 285.8908 15.81026910  4937
STARLINK-36837          
1 67858U 26034J   26074.66826971  .00335977  00000+0  16367-2 0  9991
2 67858  53.1585 181.3235 0001512 100.5287 259.5906 15.80922260  4889
STARLINK-36393          
1 67859U 26034K   26074.66752109  .00266305  00000+0  13071-2 0  9990
2 67859  53.1583 181.3188 0002384  28.3646 331.7506 15.80947251  4885
STARLINK-35873          
1 67860U 26034L   26074.66677096  .00314314  00000+0  15334-2 0  9991
2 67860  53.1582 181.3141 0001093  99.1942 260.9205 15.80947744  4916
STARLINK-36325          
1 67861U 26034M   26074.60279894  .00312776  00000+0  15252-2 0  9999
2 67861  53.1582 181.6257 0001908  47.3810 312.7374 15.80963337  4876
STARLINK-36332          
1 67862U 26034N   26074.60205150  .00254142  00000+0  12502-2 0  9991
2 67862  53.1581 181.6204 0002161  26.3610 333.7522 15.80931809  4872
STARLINK-36835          
1 67863U 26034P   26074.60130207  .00281463  00000+0  13800-2 0  9990
2 67863  53.1582 181.6143 0002108  50.8064 309.3146 15.80929428  4877
STARLINK-36831          
1 67864U 26034Q   26074.60055152  .00316238  00000+0  15468-2 0  9997
2 67864  53.1582 181.6101 0001690  46.9713 313.1451 15.80887585  4873
STARLINK-36738          
1 67865U 26034R   26074.59979760  .00259335  00000+0  12782-2 0  9996
2 67865  53.1581 181.6046 0001839 111.0908 249.0312 15.80875464  4872
STARLINK-36780          
1 67866U 26034S   26074.59904904  .00200559  00000+0  99454-3 0  9991
2 67866  53.1584 181.5996 0001457 146.9817 213.1297 15.80910082  4871
STARLINK-36761          
1 67867U 26034T   26074.59829687  .00264683  00000+0  12993-2 0  9996
2 67867  53.1584 181.5932 0001357  55.6422 304.4729 15.80949247  4878
STARLINK-36762          
1 67868U 26034U   26074.59754686  .00378079  00000+0  18316-2 0  9993
2 67868  53.1585 181.5889 0001233  59.9011 300.2134 15.80930072  4875
