CCSDS_OMM_VERS = 2.0
CREATION_DATE  = 
ORIGINATOR     = 

OBJECT_NAME    = STARLINK-36828
OBJECT_ID      = 2026-034H
CENTER_NAME    = EARTH
REF_FRAME      = TEME
TIME_SYSTEM    = UTC
MEAN_ELEMENT_THEORY = SGP/SGP4

EPOCH          = 2026-03-15T23:39:39.865248
MEAN_MOTION    = 15.81026910
ECCENTRICITY   = .0004389
INCLINATION    = 53.1587
RA_OF_ASC_NODE = 179.7497
ARG_OF_PERICENTER = 74.2599
MEAN_ANOMALY   = 285.8908

EPHEMERIS_TYPE = 0
CLASSIFICATION_TYPE = U
NORAD_CAT_ID   = 67857
ELEMENT_SET_NO = 999
REV_AT_EPOCH   = 493
BSTAR          = .22368422E-2
MEAN_MOTION_DOT = .468976E-2
MEAN_MOTION_DDOT = 0

CCSDS_OMM_VERS = 2.0
CREATION_DATE  = 
ORIGINATOR     = 

OBJECT_NAME    = STARLINK-36837
OBJECT_ID      = 2026-034J
CENTER_NAME    = EARTH
REF_FRAME      = TEME
TIME_SYSTEM    = UTC
MEAN_ELEMENT_THEORY = SGP/SGP4

EPOCH          = 2026-03-15T16:02:18.502944
MEAN_MOTION    = 15.80922260
ECCENTRICITY   = .00015122
INCLINATION    = 53.1585
RA_OF_ASC_NODE = 181.3235
ARG_OF_PERICENTER = 100.5287
MEAN_ANOMALY   = 259.5906

EPHEMERIS_TYPE = 0
CLASSIFICATION_TYPE = U
NORAD_CAT_ID   = 67858
ELEMENT_SET_NO = 999
REV_AT_EPOCH   = 488
BSTAR          = .16366876E-2
MEAN_MOTION_DOT = .335977E-2
MEAN_MOTION_DDOT = 0

CCSDS_OMM_VERS = 2.0
CREATION_DATE  = 
ORIGINATOR     = 

OBJECT_NAME    = STARLINK-36393
OBJECT_ID      = 2026-034K
CENTER_NAME    = EARTH
REF_FRAME      = TEME
TIME_SYSTEM    = UTC
MEAN_ELEMENT_THEORY = SGP/SGP4

EPOCH          = 2026-03-15T16:01:13.822176
MEAN_MOTION    = 15.80947251
ECCENTRICITY   = .00023846
INCLINATION    = 53.1583
RA_OF_ASC_NODE = 181.3188
ARG_OF_PERICENTER = 28.3646
MEAN_ANOMALY   = 331.7506

EPHEMERIS_TYPE = 0
CLASSIFICATION_TYPE = U
NORAD_CAT_ID   = 67859
ELEMENT_SET_NO = 999
REV_AT_EPOCH   = 488
BSTAR          = .13070701E-2
MEAN_MOTION_DOT = .266305E-2
MEAN_MOTION_DDOT = 0

CCSDS_OMM_VERS = 2.0
CREATION_DATE  = 
ORIGINATOR     = 

OBJECT_NAME    = STARLINK-35873
OBJECT_ID      = 2026-034L
CENTER_NAME    = EARTH
REF_FRAME      = TEME
TIME_SYSTEM    = UTC
MEAN_ELEMENT_THEORY = SGP/SGP4

EPOCH          = 2026-03-15T16:00:09.010944
MEAN_MOTION    = 15.80947744
ECCENTRICITY   = .00010934
INCLINATION    = 53.1582
RA_OF_ASC_NODE = 181.3141
ARG_OF_PERICENTER = 99.1942
MEAN_ANOMALY   = 260.9205

EPHEMERIS_TYPE = 0
CLASSIFICATION_TYPE = U
NORAD_CAT_ID   = 67860
ELEMENT_SET_NO = 999
REV_AT_EPOCH   = 491
BSTAR          = .15334487E-2
MEAN_MOTION_DOT = .314314E-2
MEAN_MOTION_DDOT = 0

CCSDS_OMM_VERS = 2.0
CREATION_DATE  = 
ORIGINATOR     = 

OBJECT_NAME    = STARLINK-36325
OBJECT_ID      = 2026-034M
CENTER_NAME    = EARTH
REF_FRAME      = TEME
TIME_SYSTEM    = UTC
MEAN_ELEMENT_THEORY = SGP/SGP4

EPOCH          = 2026-03-15T14:28:01.828416
MEAN_MOTION    = 15.80963337
ECCENTRICITY   = .00019089
INCLINATION    = 53.1582
RA_OF_ASC_NODE = 181.6257
ARG_OF_PERICENTER = 47.3810
MEAN_ANOMALY   = 312.7374

EPHEMERIS_TYPE = 0
CLASSIFICATION_TYPE = U
NORAD_CAT_ID   = 67861
ELEMENT_SET_NO = 999
REV_AT_EPOCH   = 487
BSTAR          = .15251584E-2
MEAN_MOTION_DOT = .312776E-2
MEAN_MOTION_DDOT = 0

CCSDS_OMM_VERS = 2.0
CREATION_DATE  = 
ORIGINATOR     = 

OBJECT_NAME    = STARLINK-36332
OBJECT_ID      = 2026-034N
CENTER_NAME    = EARTH
REF_FRAME      = TEME
TIME_SYSTEM    = UTC
MEAN_ELEMENT_THEORY = SGP/SGP4

EPOCH          = 2026-03-15T14:26:57.249600
MEAN_MOTION    = 15.80931809
ECCENTRICITY   = .00021614
INCLINATION    = 53.1581
RA_OF_ASC_NODE = 181.6204
ARG_OF_PERICENTER = 26.3610
MEAN_ANOMALY   = 333.7522

EPHEMERIS_TYPE = 0
CLASSIFICATION_TYPE = U
NORAD_CAT_ID   = 67862
ELEMENT_SET_NO = 999
REV_AT_EPOCH   = 487
BSTAR          = .12502031E-2
MEAN_MOTION_DOT = .254142E-2
MEAN_MOTION_DDOT = 0

CCSDS_OMM_VERS = 2.0
CREATION_DATE  = 
ORIGINATOR     = 

OBJECT_NAME    = STARLINK-36835
OBJECT_ID      = 2026-034P
CENTER_NAME    = EARTH
REF_FRAME      = TEME
TIME_SYSTEM    = UTC
MEAN_ELEMENT_THEORY = SGP/SGP4

EPOCH          = 2026-03-15T14:25:52.498848
MEAN_MOTION    = 15.80929428
ECCENTRICITY   = .00021084
INCLINATION    = 53.1582
RA_OF_ASC_NODE = 181.6143
ARG_OF_PERICENTER = 50.8064
MEAN_ANOMALY   = 309.3146

EPHEMERIS_TYPE = 0
CLASSIFICATION_TYPE = U
NORAD_CAT_ID   = 67863
ELEMENT_SET_NO = 999
REV_AT_EPOCH   = 487
BSTAR          = .13799832E-2
MEAN_MOTION_DOT = .281463E-2
MEAN_MOTION_DDOT = 0

CCSDS_OMM_VERS = 2.0
CREATION_DATE  = 
ORIGINATOR     = 

OBJECT_NAME    = STARLINK-36831
OBJECT_ID      = 2026-034Q
CENTER_NAME    = EARTH
REF_FRAME      = TEME
TIME_SYSTEM    = UTC
MEAN_ELEMENT_THEORY = SGP/SGP4

EPOCH          = 2026-03-15T14:24:47.651328
MEAN_MOTION    = 15.80887585
ECCENTRICITY   = .00016906
INCLINATION    = 53.1582
RA_OF_ASC_NODE = 181.6101
ARG_OF_PERICENTER = 46.9713
MEAN_ANOMALY   = 313.1451

EPHEMERIS_TYPE = 0
CLASSIFICATION_TYPE = U
NORAD_CAT_ID   = 67864
ELEMENT_SET_NO = 999
REV_AT_EPOCH   = 487
BSTAR          = .15467593E-2
MEAN_MOTION_DOT = .316238E-2
MEAN_MOTION_DDOT = 0

CCSDS_OMM_VERS = 2.0
CREATION_DATE  = 
ORIGINATOR     = 

OBJECT_NAME    = STARLINK-36738
OBJECT_ID      = 2026-034R
CENTER_NAME    = EARTH
REF_FRAME      = TEME
TIME_SYSTEM    = UTC
MEAN_ELEMENT_THEORY = SGP/SGP4

EPOCH          = 2026-03-15T14:23:42.512640
MEAN_MOTION    = 15.80875464
ECCENTRICITY   = .00018399
INCLINATION    = 53.1581
RA_OF_ASC_NODE = 181.6046
ARG_OF_PERICENTER = 111.0908
MEAN_ANOMALY   = 249.0312

EPHEMERIS_TYPE = 0
CLASSIFICATION_TYPE = U
NORAD_CAT_ID   = 67865
ELEMENT_SET_NO = 999
REV_AT_EPOCH   = 487
BSTAR          = .12782284E-2
MEAN_MOTION_DOT = .259335E-2
MEAN_MOTION_DDOT = 0

CCSDS_OMM_VERS = 2.0
CREATION_DATE  = 
ORIGINATOR     = 

OBJECT_NAME    = STARLINK-36780
OBJECT_ID      = 2026-034S
CENTER_NAME    = EARTH
REF_FRAME      = TEME
TIME_SYSTEM    = UTC
MEAN_ELEMENT_THEORY = SGP/SGP4

EPOCH          = 2026-03-15T14:22:37.837056
MEAN_MOTION    = 15.80910082
ECCENTRICITY   = .00014579
INCLINATION    = 53.1584
RA_OF_ASC_NODE = 181.5996
ARG_OF_PERICENTER = 146.9817
MEAN_ANOMALY   = 213.1297

EPHEMERIS_TYPE = 0
CLASSIFICATION_TYPE = U
NORAD_CAT_ID   = 67866
ELEMENT_SET_NO = 999
REV_AT_EPOCH   = 487
BSTAR          = .99453812E-3
MEAN_MOTION_DOT = .200559E-2
MEAN_MOTION_DDOT = 0

CCSDS_OMM_VERS = 2.0
CREATION_DATE  = 
ORIGINATOR     = 

OBJECT_NAME    = STARLINK-36761
OBJECT_ID      = 2026-034T
CENTER_NAME    = EARTH
REF_FRAME      = TEME
TIME_SYSTEM    = UTC
MEAN_ELEMENT_THEORY = SGP/SGP4

EPOCH          = 2026-03-15T14:21:32.849568
MEAN_MOTION    = 15.80949247
ECCENTRICITY   = .00013575
INCLINATION    = 53.1584
RA_OF_ASC_NODE = 181.5932
ARG_OF_PERICENTER = 55.6422
MEAN_ANOMALY   = 304.4729

EPHEMERIS_TYPE = 0
CLASSIFICATION_TYPE = U
NORAD_CAT_ID   = 67867
ELEMENT_SET_NO = 999
REV_AT_EPOCH   = 487
BSTAR          = .12992968E-2
MEAN_MOTION_DOT = .264683E-2
MEAN_MOTION_DDOT = 0

CCSDS_OMM_VERS = 2.0
CREATION_DATE  = 
ORIGINATOR     = 

OBJECT_NAME    = STARLINK-36762
OBJECT_ID      = 2026-034U
CENTER_NAME    = EARTH
REF_FRAME      = TEME
TIME_SYSTEM    = UTC
MEAN_ELEMENT_THEORY = SGP/SGP4

EPOCH          = 2026-03-15T14:20:28.048704
MEAN_MOTION    = 15.80930072
ECCENTRICITY   = .0001233
INCLINATION    = 53.1585
RA_OF_ASC_NODE = 181.5889
ARG_OF_PERICENTER = 59.9011
MEAN_ANOMALY   = 300.2134

EPHEMERIS_TYPE = 0
CLASSIFICATION_TYPE = U
NORAD_CAT_ID   = 67868
ELEMENT_SET_NO = 999
REV_AT_EPOCH   = 487
BSTAR          = .18316082E-2
MEAN_MOTION_DOT = .378079E-2
MEAN_MOTION_DDOT = 0

